0 FENGYUN 1C DEB
1 31802U 99025CGQ 13283.10114764  .00002241  00000-0  28511-3 0  3825
2 31802 098.1915 233.0394 0225002 195.3468 164.0655 14.66444330337993
0 FENGYUN 1C DEB
1 31802U 99025CGQ 13284.05643592  .00002326  00000-0  29479-3 0  3835
2 31802 098.1933 233.9995 0225817 191.6542 167.9493 14.66449655338139
0 FENGYUN 1C DEB
1 31802U 99025CGQ 13287.67282934  .00003241  00000-0  40977-3 0  3850
2 31802 098.1910 237.6080 0223780 180.8460 179.2781 14.66478516338668
0 FENGYUN 1C DEB
1 31802U 99025CGQ 13289.10571430  .00003408  00000-0  43088-3 0  3864
2 31802 098.1876 239.0305 0223433 176.5561 183.7418 14.66489967338876
0 FENGYUN 1C DEB
1 31802U 99025CGQ 13291.08444844  .00003482  00000-0  44063-3 0  3879
2 31802 098.1853 241.0030 0222906 170.3223 190.2425 14.66504657339168
0 FENGYUN 1C DEB
1 31802U 99025CGQ 13293.06316398  .00003587  00000-0  45324-3 0  3889
2 31802 098.1849 242.9773 0222981 164.0227 196.8252 14.66519936339452
0 FENGYUN 1C DEB
1 31802U 99025CGQ 13294.08662724  .00003684  00000-0  46324-3 0  3899
2 31802 098.1905 244.0089 0224211 160.7853 200.2134 14.66528166339605
0 FENGYUN 1C DEB
1 31802U 99025CGQ 13295.11008297  .00003559  00000-0  44715-3 0  3908
2 31802 098.1928 245.0364 0224604 157.4497 203.6701 14.66534771339752
